NORAD_CAT_ID,OBJECT_NAME,OBJECT_TYPE,EPOCH,MEAN_MOTION,ECCENTRICITY,INCLINATION,RA_OF_ASC_NODE,ARG_OF_PERICENTER,MEAN_ANOMALY,BSTAR,MEAN_MOTION_DOT,MEAN_MOTION_DDOT,TLE_LINE0,TLE_LINE1,TLE_LINE2,SEMIMAJOR_AXIS,PERIOD,APOGEE,PERIGEE,DECAYED
53793.0,STARLINK-4728,PAYLOAD,2023-07-05 14:48:30,15.08835659,0.0001084,53.2181,344.6319,96.6248,263.4867,-1.4946e-05,-5.26e-06,0.0,0 STARLINK-4728,1 53793U 22111W   23186.61701974 -.00000526  00000-0 -14946-4 0  9992,2 53793  53.2181 344.6319 0001084  96.6248 263.4867 15.08835659 45237,6917.894,95.438,540.509,539.009,0.0
53793.0,STARLINK-4728,PAYLOAD,2023-07-07 03:22:22,15.08834966,5.24e-05,53.218,337.7915,96.0074,264.0977,9.7492e-07,-2.72e-06,0.0,0 STARLINK-4728,1 53793U 22111W   23188.14054061 -.00000272  00000-0  97492-6 0  9996,2 53793  53.2180 337.7915 0000524  96.0074 264.0977 15.08834966 45464,6917.896,95.438,540.123,539.398,0.0
53793.0,STARLINK-4728,PAYLOAD,2023-07-07 16:05:27,15.08849926,9.4e-05,53.2173,335.4125,86.8533,273.2567,0.0003028,4.536e-05,0.0,0 STARLINK-4728,1 53793U 22111W   23188.67045700  .00004536  00000-0  30280-3 0  9999,2 53793  53.2173 335.4125 0000940  86.8533 273.2567 15.08849926 45541,6917.85,95.437,540.365,539.065,0.0
53793.0,STARLINK-4728,PAYLOAD,2023-07-08 09:34:42,15.08845606,0.0001017,53.2171,332.1424,80.1834,279.9273,0.00021078,3.069e-05,0.0,0 STARLINK-4728,1 53793U 22111W   23189.39909805  .00003069  00000-0  21078-3 0  9999,2 53793  53.2171 332.1424 0001017  80.1834 279.9273 15.08845606 45652,6917.863,95.437,540.432,539.025,0.0
53793.0,STARLINK-4728,PAYLOAD,2023-07-09 03:03:56,15.08838317,9.74e-05,53.2171,328.8709,81.2738,278.8364,0.00010836,1.437e-05,0.0,0 STARLINK-4728,1 53793U 22111W   23190.12774106  .00001437  00000-0  10836-3 0  9993,2 53793  53.2171 328.8709 0000974  81.2738 278.8364 15.08838317 45768,6917.886,95.438,540.424,539.077,0.0
53793.0,STARLINK-4728,PAYLOAD,2023-07-09 18:57:48,15.08836401,0.0001013,53.2182,325.8968,85.5355,274.5753,2.6661e-06,-2.45e-06,0.0,0 STARLINK-4728,1 53793U 22111W   23190.79014563 -.00000245  00000-0  26661-5 0  9992,2 53793  53.2182 325.8968 0001013  85.5355 274.5753 15.08836401 45869,6917.891,95.438,540.457,539.056,0.0
53793.0,STARLINK-4728,PAYLOAD,2023-07-10 18:48:34,15.08850912,0.0001069,53.2182,321.4366,87.9453,272.1662,6.1256e-05,6.87e-06,0.0,0 STARLINK-4728,1 53793U 22111W   23191.78373509  .00000687  00000-0  61256-4 0  9997,2 53793  53.2182 321.4366 0001069  87.9453 272.1662 15.08850912 46013,6917.847,95.437,540.452,538.973,0.0
53793.0,STARLINK-4728,PAYLOAD,2023-07-11 09:07:03,15.08834921,0.0001049,53.2178,318.7595,96.7635,263.3476,0.00014718,2.055e-05,0.0,0 STARLINK-4728,1 53793U 22111W   23192.37990597  .00002055  00000-0  14718-3 0  9996,2 53793  53.2178 318.7595 0001049  96.7635 263.3476 15.08834921 46106,6917.896,95.438,540.487,539.035,0.0
53793.0,STARLINK-4728,PAYLOAD,2023-07-11 13:53:13,15.08842792,9.34e-05,53.217,317.8682,81.1429,278.9669,0.00020944,3.047e-05,0.0,0 STARLINK-4728,1 53793U 22111W   23192.57862355  .00003047  00000-0  20944-3 0  9998,2 53793  53.2170 317.8682 0000934  81.1429 278.9669 15.08842792 46130,6917.872,95.437,540.383,539.091,0.0
53793.0,STARLINK-4728,PAYLOAD,2023-07-12 15:19:23,15.08845583,9.99e-05,53.2178,313.1112,81.9275,278.1831,4.7489e-05,4.68e-06,0.0,0 STARLINK-4728,1 53793U 22111W   23193.63846095  .00000468  00000-0  47489-4 0  9997,2 53793  53.2178 313.1112 0000999  81.9275 278.1831 15.08845583 46294,6917.863,95.437,540.419,539.037,0.0
53793.0,STARLINK-4728,PAYLOAD,2023-07-13 15:10:10,15.08837602,0.000108,53.2192,308.6514,92.741,267.3706,6.4646e-05,7.41e-06,0.0,0 STARLINK-4728,1 53793U 22111W   23194.63206889  .00000741  00000-0  64646-4 0  9997,2 53793  53.2192 308.6514 0001080  92.7410 267.3706 15.08837602 46449,6917.888,95.438,540.5,539.006,0.0
53793.0,STARLINK-4728,PAYLOAD,2023-07-14 15:00:57,15.08849369,9.74e-05,53.2174,304.1903,86.8239,273.2864,0.00020497,2.977e-05,0.0,0 STARLINK-4728,1 53793U 22111W   23195.62566179  .00002977  00000-0  20497-3 0  9996,2 53793  53.2174 304.1903 0000974  86.8239 273.2864 15.08849369 46596,6917.852,95.437,540.391,539.043,0.0
53793.0,STARLINK-4728,PAYLOAD,2023-07-15 00:33:16,15.08844712,0.0001192,53.218,302.4063,79.0429,281.0697,0.000197,2.849e-05,0.0,0 STARLINK-4728,1 53793U 22111W   23196.02310433  .00002849  00000-0  19700-3 0  9994,2 53793  53.2180 302.4063 0001192  79.0429 281.0697 15.08844712 46654,6917.866,95.437,540.556,538.906,0.0
53793.0,STARLINK-4728,PAYLOAD,2023-07-15 06:54:48,15.08838678,9.89e-05,53.2174,301.2175,86.5882,273.5223,0.00015947,2.251e-05,0.0,0 STARLINK-4728,1 53793U 22111W   23196.28806698  .00002251  00000-0  15947-3 0  9991,2 53793  53.2174 301.2175 0000989  86.5882 273.5223 15.08838678 46696,6917.884,95.438,540.434,539.065,0.0
53793.0,STARLINK-4728,PAYLOAD,2023-07-16 06:45:36,15.08836628,0.0001512,53.2189,296.7593,77.0652,283.0509,-7.2722e-06,-4.04e-06,0.0,0 STARLINK-4728,1 53793U 22111W   23197.28167323 -.00000404  00000-0 -72722-5 0  9993,2 53793  53.2189 296.7593 0001512  77.0652 283.0509 15.08836628 46840,6917.891,95.438,540.802,538.71,0.0
53793.0,STARLINK-4728,PAYLOAD,2023-07-17 12:57:55,15.08838775,0.0001156,53.2176,291.1071,90.1384,269.974,6.3543e-05,7.24e-06,0.0,0 STARLINK-4728,1 53793U 22111W   23198.54023093  .00000724  00000-0  63543-4 0  9991,2 53793  53.2176 291.1071 0001156  90.1384 269.9740 15.08838775 47035,6917.884,95.438,540.549,538.949,0.0
53793.0,STARLINK-4728,PAYLOAD,2023-07-19 09:28:44,15.08834052,0.00012,53.2176,282.7798,101.2238,258.8889,-2.8689e-05,-7.44e-06,0.0,0 STARLINK-4728,1 53793U 22111W   23200.39496176 -.00000744  00000-0 -28689-4 0  9990,2 53793  53.2176 282.7798 0001200 101.2238 258.8889 15.08834052 47315,6917.899,95.438,540.594,538.933,0.0
53793.0,STARLINK-4728,PAYLOAD,2023-07-20 15:41:03,15.08846894,0.0001981,53.2187,277.1299,117.4711,242.6483,4.0422e-05,3.55e-06,0.0,0 STARLINK-4728,1 53793U 22111W   23201.65351334  .00000355  00000-0  40422-4 0  9991,2 53793  53.2187 277.1299 0001981 117.4711 242.6483 15.08846894 47501,6917.859,95.437,541.095,538.354,0.0
53793.0,STARLINK-4728,PAYLOAD,2023-07-21 05:59:32,15.08837491,0.0001119,53.2174,274.4536,100.399,259.7128,0.000131,1.798e-05,0.0,0 STARLINK-4728,1 53793U 22111W   23202.24967875  .00001798  00000-0  13100-3 0  9994,2 53793  53.2174 274.4536 0001119 100.3990 259.7128 15.08837491 47591,6917.888,95.438,540.527,538.979,0.0
53793.0,STARLINK-4728,PAYLOAD,2023-07-24 03:56:30,15.08839294,0.0001296,53.2169,261.3708,81.3503,278.7636,5.1658e-05,5.34e-06,0.0,0 STARLINK-4728,1 53793U 22111W   23205.16423838  .00000534  00000-0  51658-4 0  9992,2 53793  53.2169 261.3708 0001296  81.3503 278.7636 15.08839294 48831,6917.883,95.438,540.644,538.851,0.0
53793.0,STARLINK-4728,PAYLOAD,2023-07-25 08:33:26,15.08838165,0.0001158,53.2164,256.0164,94.7113,265.4011,5.0071e-05,5.09e-06,0.0,0 STARLINK-4728,1 53793U 22111W   23206.35655941  .00000509  00000-0  50071-4 0  9996,2 53793  53.2164 256.0164 0001158  94.7113 265.4011 15.08838165 49012,6917.886,95.438,540.552,538.95,0.0
53793.0,STARLINK-4728,PAYLOAD,2023-07-26 03:38:04,15.08838312,0.0001079,53.2156,252.4477,90.2581,269.8535,5.7168e-05,6.22e-06,0.0,0 STARLINK-4728,1 53793U 22111W   23207.15144044  .00000622  00000-0  57168-4 0  9992,2 53793  53.2156 252.4477 0001079  90.2581 269.8535 15.08838312 49138,6917.886,95.438,540.497,539.004,0.0
53793.0,STARLINK-4728,PAYLOAD,2023-07-26 06:48:50,15.08839925,0.0001087,53.2158,251.8532,93.1306,266.981,6.8065e-05,7.96e-06,0.0,0 STARLINK-4728,1 53793U 22111W   23207.28391907  .00000796  00000-0  68065-4 0  9998,2 53793  53.2158 251.8532 0001087  93.1306 266.9810 15.08839925 48359,6917.881,95.438,540.498,538.994,0.0
53793.0,STARLINK-4728,PAYLOAD,2023-07-26 19:31:55,15.08840918,0.0001094,53.2156,249.4745,91.1092,269.0026,0.00010064,1.314e-05,0.0,0 STARLINK-4728,1 53793U 22111W   23207.81383700  .00001314  00000-0  10064-3 0  9991,2 53793  53.2156 249.4745 0001094  91.1092 269.0026 15.08840918 49239,6917.878,95.437,540.499,538.986,0.0
53793.0,STARLINK-4728,PAYLOAD,2023-07-27 09:50:23,15.08841942,0.000117,53.2161,246.7984,95.8993,264.2133,9.4307e-05,1.213e-05,0.0,0 STARLINK-4728,1 53793U 22111W   23208.40999661  .00001213  00000-0  94307-4 0  9997,2 53793  53.2161 246.7984 0001170  95.8993 264.2133 15.08841942 48521,6917.874,95.437,540.549,538.93,0.0
53793.0,STARLINK-4728,PAYLOAD,2023-07-27 19:22:42,15.08837495,0.0001094,53.2158,245.0147,86.7179,273.3938,4.9067e-05,4.93e-06,0.0,0 STARLINK-4728,1 53793U 22111W   23208.80744090  .00000493  00000-0  49067-4 0  9997,2 53793  53.2158 245.0147 0001094  86.7179 273.3938 15.08837495 49387,6917.888,95.438,540.51,538.996,0.0
53793.0,STARLINK-4728,PAYLOAD,2023-07-28 03:19:39,15.08827213,0.0001221,53.2167,243.5282,92.2818,267.8314,-1.3438e-05,-5.02e-06,0.0,0 STARLINK-4728,1 53793U 22111W   23209.13864999 -.00000502  00000-0 -13438-4 0  9991,2 53793  53.2167 243.5282 0001221  92.2818 267.8314 15.08827213 48634,6917.919,95.438,540.629,538.94,0.0
53793.0,STARLINK-4728,PAYLOAD,2023-07-28 06:30:25,15.08834741,0.0001291,53.2177,242.933,95.2289,264.8851,-2.2675e-05,-6.49e-06,0.0,0 STARLINK-4728,1 53793U 22111W   23209.27112620 -.00000649  00000-0 -22675-4 0  9998,2 53793  53.2177 242.9330 0001291  95.2289 264.8851 15.08834741 48653,6917.896,95.438,540.655,538.868,0.0
53793.0,STARLINK-4728,PAYLOAD,2023-07-28 12:51:57,15.08839124,0.000126,53.2163,241.7427,80.142,279.9715,1.8092e-05,0.0,0.0,0 STARLINK-4728,1 53793U 22111W   23209.53608344  .00000000  00000-0  18092-4 0  9997,2 53793  53.2163 241.7427 0001260  80.1420 279.9715 15.08839124 49497,6917.883,95.438,540.62,538.876,0.0
53793.0,STARLINK-4728,PAYLOAD,2023-07-28 19:13:29,15.08853341,0.0001356,53.2178,240.5537,118.0272,242.0857,-0.00019596,-3.406e-05,0.0,0 STARLINK-4728,1 53793U 22111W   23209.80103786 -.00003406  00000-0 -19596-3 0  9991,2 53793  53.2178 240.5537 0001356 118.0272 242.0857 15.08853341 48735,6917.84,95.437,540.643,538.767,0.0
